CCSDS_OMM_VERS = 2.0
CREATION_DATE  = 
ORIGINATOR     = 

OBJECT_NAME    = SL-16 R/B
OBJECT_ID      = 1993-016B
CENTER_NAME    = EARTH
REF_FRAME      = TEME
TIME_SYSTEM    = UTC
MEAN_ELEMENT_THEORY = SGP/SGP4

EPOCH          = 2026-01-31T04:18:37.637856
MEAN_MOTION    = 14.15302242
ECCENTRICITY   = .00097
INCLINATION    = 71.0085
RA_OF_ASC_NODE = 293.9671
ARG_OF_PERICENTER = 7.7033
MEAN_ANOMALY   = 352.4237

EPHEMERIS_TYPE = 0
CLASSIFICATION_TYPE = U
NORAD_CAT_ID   = 22566
ELEMENT_SET_NO = 999
REV_AT_EPOCH   = 69686
BSTAR          = .14724E-3
MEAN_MOTION_DOT = .239E-5
MEAN_MOTION_DDOT = 0

CCSDS_OMM_VERS = 2.0
CREATION_DATE  = 
ORIGINATOR     = 

OBJECT_NAME    = COSMOS 2242
OBJECT_ID      = 1993-024A
CENTER_NAME    = EARTH
REF_FRAME      = TEME
TIME_SYSTEM    = UTC
MEAN_ELEMENT_THEORY = SGP/SGP4

EPOCH          = 2026-01-31T11:00:24.870816
MEAN_MOTION    = 14.96383184
ECCENTRICITY   = .0018031
INCLINATION    = 82.5208
RA_OF_ASC_NODE = 302.3222
ARG_OF_PERICENTER = 71.9228
MEAN_ANOMALY   = 288.3956

EPHEMERIS_TYPE = 0
CLASSIFICATION_TYPE = U
NORAD_CAT_ID   = 22626
ELEMENT_SET_NO = 999
REV_AT_EPOCH   = 77482
BSTAR          = .18914E-3
MEAN_MOTION_DOT = .2174E-4
MEAN_MOTION_DDOT = 0

CCSDS_OMM_VERS = 2.0
CREATION_DATE  = 
ORIGINATOR     = 

OBJECT_NAME    = SL-16 R/B
OBJECT_ID      = 1993-059B
CENTER_NAME    = EARTH
REF_FRAME      = TEME
TIME_SYSTEM    = UTC
MEAN_ELEMENT_THEORY = SGP/SGP4

EPOCH          = 2026-01-31T11:48:52.144416
MEAN_MOTION    = 14.17223325
ECCENTRICITY   = .0019523
INCLINATION    = 70.9896
RA_OF_ASC_NODE = 89.5725
ARG_OF_PERICENTER = 267.1814
MEAN_ANOMALY   = 92.7075

EPHEMERIS_TYPE = 0
CLASSIFICATION_TYPE = U
NORAD_CAT_ID   = 22803
ELEMENT_SET_NO = 999
REV_AT_EPOCH   = 67426
BSTAR          = .57915E-4
MEAN_MOTION_DOT = .69E-6
MEAN_MOTION_DDOT = 0

CCSDS_OMM_VERS = 2.0
CREATION_DATE  = 
ORIGINATOR     = 

OBJECT_NAME    = ARIANE 40 R/B
OBJECT_ID      = 1993-061H
CENTER_NAME    = EARTH
REF_FRAME      = TEME
TIME_SYSTEM    = UTC
MEAN_ELEMENT_THEORY = SGP/SGP4

EPOCH          = 2026-01-31T03:06:30.741408
MEAN_MOTION    = 14.32839704
ECCENTRICITY   = .00112837
INCLINATION    = 98.4996
RA_OF_ASC_NODE = 100.7435
ARG_OF_PERICENTER = 40.5566
MEAN_ANOMALY   = 319.6457

EPHEMERIS_TYPE = 0
CLASSIFICATION_TYPE = U
NORAD_CAT_ID   = 22830
ELEMENT_SET_NO = 999
REV_AT_EPOCH   = 68872
BSTAR          = .11724368E-3
MEAN_MOTION_DOT = .277E-5
MEAN_MOTION_DDOT = 0

CCSDS_OMM_VERS = 2.0
CREATION_DATE  = 
ORIGINATOR     = 

OBJECT_NAME    = COSMOS 2278
OBJECT_ID      = 1994-023A
CENTER_NAME    = EARTH
REF_FRAME      = TEME
TIME_SYSTEM    = UTC
MEAN_ELEMENT_THEORY = SGP/SGP4

EPOCH          = 2026-01-31T11:13:15.709152
MEAN_MOTION    = 14.14366028
ECCENTRICITY   = .0006302
INCLINATION    = 71.0515
RA_OF_ASC_NODE = 252.9737
ARG_OF_PERICENTER = 83.6625
MEAN_ANOMALY   = 276.5215

EPHEMERIS_TYPE = 0
CLASSIFICATION_TYPE = U
NORAD_CAT_ID   = 23087
ELEMENT_SET_NO = 999
REV_AT_EPOCH   = 63954
BSTAR          = -.72251E-4
MEAN_MOTION_DOT = -.185E-5
MEAN_MOTION_DDOT = 0

CCSDS_OMM_VERS = 2.0
CREATION_DATE  = 
ORIGINATOR     = 

OBJECT_NAME    = SL-16 R/B
OBJECT_ID      = 1994-023B
CENTER_NAME    = EARTH
REF_FRAME      = TEME
TIME_SYSTEM    = UTC
MEAN_ELEMENT_THEORY = SGP/SGP4

EPOCH          = 2026-01-31T11:02:42.139680
MEAN_MOTION    = 14.15004938
ECCENTRICITY   = .0004348
INCLINATION    = 71.0001
RA_OF_ASC_NODE = 149.0733
ARG_OF_PERICENTER = 319.5357
MEAN_ANOMALY   = 40.5442

EPHEMERIS_TYPE = 0
CLASSIFICATION_TYPE = U
NORAD_CAT_ID   = 23088
ELEMENT_SET_NO = 999
REV_AT_EPOCH   = 64082
BSTAR          = -.10199E-3
MEAN_MOTION_DOT = -.245E-5
MEAN_MOTION_DDOT = 0

CCSDS_OMM_VERS = 2.0
CREATION_DATE  = 
ORIGINATOR     = 

OBJECT_NAME    = SL-16 R/B
OBJECT_ID      = 1994-074B
CENTER_NAME    = EARTH
REF_FRAME      = TEME
TIME_SYSTEM    = UTC
MEAN_ELEMENT_THEORY = SGP/SGP4

EPOCH          = 2026-01-31T01:06:19.845792
MEAN_MOTION    = 14.79360304
ECCENTRICITY   = .00063492
INCLINATION    = 97.7155
RA_OF_ASC_NODE = 63.3805
ARG_OF_PERICENTER = 357.1587
MEAN_ANOMALY   = 32.6664

EPHEMERIS_TYPE = 0
CLASSIFICATION_TYPE = U
NORAD_CAT_ID   = 23343
ELEMENT_SET_NO = 999
REV_AT_EPOCH   = 68168
BSTAR          = .89114403E-4
MEAN_MOTION_DOT = .615E-5
MEAN_MOTION_DDOT = 0

CCSDS_OMM_VERS = 2.0
CREATION_DATE  = 
ORIGINATOR     = 

OBJECT_NAME    = SL-16 R/B
OBJECT_ID      = 1994-077B
CENTER_NAME    = EARTH
REF_FRAME      = TEME
TIME_SYSTEM    = UTC
MEAN_ELEMENT_THEORY = SGP/SGP4

EPOCH          = 2026-01-31T10:57:09.771840
MEAN_MOTION    = 14.15557348
ECCENTRICITY   = .0004659
INCLINATION    = 70.9819
RA_OF_ASC_NODE = 70.8226
ARG_OF_PERICENTER = 245.7032
MEAN_ANOMALY   = 114.3604

EPHEMERIS_TYPE = 0
CLASSIFICATION_TYPE = U
NORAD_CAT_ID   = 23405
ELEMENT_SET_NO = 999
REV_AT_EPOCH   = 61096
BSTAR          = -.8527E-4
MEAN_MOTION_DOT = -.215E-5
MEAN_MOTION_DDOT = 0

CCSDS_OMM_VERS = 2.0
CREATION_DATE  = 
ORIGINATOR     = 

OBJECT_NAME    = ARIANE 40+ R/B
OBJECT_ID      = 1995-021B
CENTER_NAME    = EARTH
REF_FRAME      = TEME
TIME_SYSTEM    = UTC
MEAN_ELEMENT_THEORY = SGP/SGP4

EPOCH          = 2026-01-31T11:42:08.938944
MEAN_MOTION    = 14.39743256
ECCENTRICITY   = .000574
INCLINATION    = 98.4572
RA_OF_ASC_NODE = 103.4599
ARG_OF_PERICENTER = 249.4492
MEAN_ANOMALY   = 121.4127

EPHEMERIS_TYPE = 0
CLASSIFICATION_TYPE = U
NORAD_CAT_ID   = 23561
ELEMENT_SET_NO = 999
REV_AT_EPOCH   = 61389
BSTAR          = .1321E-3
MEAN_MOTION_DOT = .37E-5
MEAN_MOTION_DDOT = 0

CCSDS_OMM_VERS = 2.0
CREATION_DATE  = 
ORIGINATOR     = 

OBJECT_NAME    = SL-16 R/B
OBJECT_ID      = 1995-058B
CENTER_NAME    = EARTH
REF_FRAME      = TEME
TIME_SYSTEM    = UTC
MEAN_ELEMENT_THEORY = SGP/SGP4

EPOCH          = 2026-01-31T00:54:01.215648
MEAN_MOTION    = 14.15487991
ECCENTRICITY   = .00128174
INCLINATION    = 71.0191
RA_OF_ASC_NODE = 259.3059
ARG_OF_PERICENTER = 186.9591
MEAN_ANOMALY   = 173.1356

EPHEMERIS_TYPE = 0
CLASSIFICATION_TYPE = U
NORAD_CAT_ID   = 23705
ELEMENT_SET_NO = 999
REV_AT_EPOCH   = 56252
BSTAR          = .48230582E-4
MEAN_MOTION_DOT = .47E-6
MEAN_MOTION_DDOT = 0

CCSDS_OMM_VERS = 2.0
CREATION_DATE  = 
ORIGINATOR     = 

OBJECT_NAME    = SL-16 R/B
OBJECT_ID      = 1996-051B
CENTER_NAME    = EARTH
REF_FRAME      = TEME
TIME_SYSTEM    = UTC
MEAN_ELEMENT_THEORY = SGP/SGP4

EPOCH          = 2026-01-30T23:50:13.140960
MEAN_MOTION    = 14.12404813
ECCENTRICITY   = .00181541
INCLINATION    = 70.7567
RA_OF_ASC_NODE = 255.0304
ARG_OF_PERICENTER = 200.0806
MEAN_ANOMALY   = 159.9602

EPHEMERIS_TYPE = 0
CLASSIFICATION_TYPE = U
NORAD_CAT_ID   = 24298
ELEMENT_SET_NO = 999
REV_AT_EPOCH   = 51632
BSTAR          = .66766001E-4
MEAN_MOTION_DOT = .74E-6
MEAN_MOTION_DDOT = 0

CCSDS_OMM_VERS = 2.0
CREATION_DATE  = 
ORIGINATOR     = 

OBJECT_NAME    = ORBVIEW 2 (SEASTAR)
OBJECT_ID      = 1997-037A
CENTER_NAME    = EARTH
REF_FRAME      = TEME
TIME_SYSTEM    = UTC
MEAN_ELEMENT_THEORY = SGP/SGP4

EPOCH          = 2026-01-31T09:44:12.549984
MEAN_MOTION    = 14.35464166
ECCENTRICITY   = .0002617
INCLINATION    = 98.8503
RA_OF_ASC_NODE = 194.7433
ARG_OF_PERICENTER = 149.3950
MEAN_ANOMALY   = 210.7387

EPHEMERIS_TYPE = 0
CLASSIFICATION_TYPE = U
NORAD_CAT_ID   = 24883
ELEMENT_SET_NO = 999
REV_AT_EPOCH   = 50312
BSTAR          = .14455E-3
MEAN_MOTION_DOT = .369E-5
MEAN_MOTION_DDOT = 0

