SL-16 R/B               
1 22566U 93016B   26031.17960229  .00000239  00000+0  14724-3 0  9992
2 22566  71.0085 293.9671 0009700   7.7033 352.4237 14.15302242696862
COSMOS 2242             
1 22626U 93024A   26031.45862119  .00002174  00000+0  18914-3 0  9993
2 22626  82.5208 302.3222 0018031  71.9228 288.3956 14.96383184774827
SL-16 R/B               
1 22803U 93059B   26031.49227019  .00000069  00000+0  57915-4 0  9992
2 22803  70.9896  89.5725 0019523 267.1814  92.7075 14.17223325674266
ARIANE 40 R/B           
1 22830U 93061H   26031.12952247  .00000277  00000+0  11724-3 0  9991
2 22830  98.4996 100.7435 0011283  40.5566 319.6457 14.32839704688720
COSMOS 2278             
1 23087U 94023A   26031.46754293 -.00000185  00000+0 -72251-4 0  9996
2 23087  71.0515 252.9737 0006302  83.6625 276.5215 14.14366028639547
SL-16 R/B               
1 23088U 94023B   26031.46020995 -.00000245  00000+0 -10199-3 0  9991
2 23088  71.0001 149.0733 0004348 319.5357  40.5442 14.15004938640825
SL-16 R/B               
1 23343U 94074B   26031.04606303  .00000615  00000+0  89114-4 0  9991
2 23343  97.7155  63.3805 0006349 357.1587  32.6664 14.79360304681687
SL-16 R/B               
1 23405U 94077B   26031.45636310 -.00000215  00000+0 -85270-4 0  9996
2 23405  70.9819  70.8226 0004659 245.7032 114.3604 14.15557348610966
ARIANE 40+ R/B          
1 23561U 95021B   26031.48760346  .00000370  00000+0  13210-3 0  9993
2 23561  98.4572 103.4599 0005740 249.4492 121.4127 14.39743256613894
SL-16 R/B               
1 23705U 95058B   26031.03751407  .00000047  00000+0  48231-4 0  9995
2 23705  71.0191 259.3059 0012817 186.9591 173.1356 14.15487991562524
SL-16 R/B               
1 24298U 96051B   26030.99320765  .00000074  00000+0  66766-4 0  9993
2 24298  70.7567 255.0304 0018154 200.0806 159.9602 14.12404813516320
ORBVIEW 2 (SEASTAR)     
1 24883U 97037A   26031.40570081  .00000369  00000+0  14455-3 0  9997
2 24883  98.8503 194.7433 0002617 149.3950 210.7387 14.35464166503127
